MEAN_MOTION;ECCENTRICITY;INCLINATION;RA_OF_ASC_NODE;ARG_OF_PERICENTER;MEAN_ANOMALY;BSTAR;MEAN_MOTION_DOT;MEAN_MOTION_DDOT;TYPE
11.39175853;0.0004744;52.0142;300.9983;163.994;278.1975;0.00047258;-5.3E-7;0;Globalstar
11.39175878;0.0004751;52.0142;300.7786;164.0772;294.3109;0.00057743;-4.9E-7;0;Globalstar
11.39175931;0.0004762;52.014;298.467;165.5254;291.4319;0.00074003;-4.2E-7;0;Globalstar
11.39175933;0.0004773;52.0138;295.9388;167.1217;299.2798;0.00075336;-4.2E-7;0;Globalstar
11.39175933;0.0004773;52.0138;295.9388;167.1217;299.2798;0.00075336;-4.2E-7;0;Globalstar
11.39175943;0.0004776;52.0137;294.5234;168.0012;202.2913;0.00070128;-4.4E-7;0;Globalstar
11.39175932;0.0004788;52.0136;293.6092;168.5912;327.2766;0.00059716;-4.8E-7;0;Globalstar
11.39175924;0.0004789;52.0136;293.3909;168.7291;340.9411;0.0005478;-5.0E-7;0;Globalstar
11.39175899;0.0004788;52.0137;292.1777;169.8939;257.1099;0.00014889;-6.5E-7;0;Globalstar
11.39175889;0.0004783;52.0137;291.7317;170.1626;300.7092;0.00011328;-6.7E-7;0;Globalstar
11.391759;0.0004807;52.0135;289.201;171.8521;312.6433;0.00012127;-6.6E-7;0;Globalstar
11.39175884;0.0004825;52.0133;286.7036;173.522;267.647;4.9711E-5;-6.9E-7;0;Globalstar
11.3917589;0.0004823;52.0133;286.4807;173.6805;289.2196;8.2131E-5;-6.8E-7;0;Globalstar
11.39175876;0.0004838;52.0132;284.1708;175.2486;283.2096;4.4498E-5;-6.9E-7;0;Globalstar
11.39175878;0.0004847;52.0131;282.0796;176.685;262.9428;3.4257E-5;-7.0E-7;0;Globalstar
11.39175884;0.0004865;52.013;279.554;178.4123;266.1951;2.7361E-5;-7.0E-7;0;Globalstar
11.3917589;0.0004867;52.0129;279.3317;178.5592;286.8621;4.5908E-5;-6.9E-7;0;Globalstar
11.39175924;0.0004881;52.0129;277.0223;180.2098;279.8003;8.6519E-5;-6.8E-7;0;Globalstar
11.3917594;0.0004879;52.0129;276.7841;180.3645;327.6956;0.00012132;-6.6E-7;0;Globalstar
11.39175947;0.0004895;52.0128;274.7119;181.843;274.7042;0.00010322;-6.7E-7;0;Globalstar
11.39175952;0.0004896;52.0128;274.2524;182.1654;341.1928;0.00010685;-6.7E-7;0;Globalstar
11.39175974;0.0004897;52.0127;273.0734;183.0259;199.3977;0.00012693;-6.6E-7;0;Globalstar
11.3917594;0.0004896;52.0124;272.4042;183.153;265.0536;0.00023174;-6.2E-7;0;Globalstar
11.39175964;0.0004911;52.0124;270.7652;184.3686;190.4269;0.00038117;-5.6E-7;0;Globalstar
11.39175969;0.0004929;52.0124;270.0958;184.8373;256.0638;0.00041234;-5.5E-7;0;Globalstar
11.39175976;0.0004931;52.0124;269.8731;184.9861;277.3533;0.00044533;-5.4E-7;0;Globalstar
11.39176051;0.0004931;52.0124;267.5632;186.6887;271.3162;0.00064202;-4.6E-7;0;Globalstar
11.39176022;0.0004934;52.0124;265.4719;188.2494;251.0189;0.00047146;-5.3E-7;0;Globalstar
11.39176025;0.0004937;52.0125;263.6155;189.695;188.9317;0.0003486;-5.8E-7;0;Globalstar
11.39175929;0.0004943;52.0127;262.4862;190.8411;322.0083;-0.00010868;-7.5E-7;0;Globalstar
11.39175862;0.0004952;52.0128;261.084;191.8531;201.9382;-0.00028485;-8.2E-7;0;Globalstar
11.39175844;0.0004955;52.0128;259.9536;192.7415;337.0722;-0.00030828;-8.3E-7;0;Globalstar
11.39175779;0.0004967;52.0128;258.324;194.0146;246.3639;-0.00043406;-8.8E-7;0;Globalstar
11.39175734;0.000498;52.0128;257.8674;194.3373;308.0036;-0.00052357;-9.2E-7;0;Globalstar
11.39175608;0.0004996;52.0128;256.2447;195.6199;205.4039;-0.00078828;-1.02E-6;0;Globalstar
11.39175462;0.0005009;52.0128;253.9352;197.4255;198.7263;-0.0010498;-1.12E-6;0;Globalstar
11.39175404;0.0005;52.0129;253.2662;197.8739;263.9206;-0.0011296;-1.16E-6;0;Globalstar
11.39175293;0.000501;52.0129;251.176;199.4635;241.869;-0.0012444;-1.2E-6;0;Globalstar
11.3917529;0.0005009;52.0129;250.955;199.5812;260.0343;-0.0012192;-1.19E-6;0;Globalstar
11.3917517;0.0005014;52.0129;248.865;201.1767;237.7046;-0.0013256;-1.23E-6;0;Globalstar
11.39174866;0.000506;52.0129;245.098;204.245;205.6801;-0.0017298;-1.39E-6;0;Globalstar
11.39174754;0.0005075;52.013;243.512;205.4658;40.6061;-0.0018159;-1.42E-6;0;Globalstar
11.39174638;0.0005087;52.013;241.9115;206.7197;260.2449;-0.0019283;-1.47E-6;0;Globalstar
11.39174438;0.00051;52.013;239.162;208.8929;286.8598;-0.0020272;-1.51E-6;0;Globalstar
11.39174252;0.0005115;52.0131;236.6597;210.8822;250.2202;-0.0021035;-1.54E-6;0;Globalstar
11.39174091;0.0005129;52.0131;234.3496;212.7524;244.5044;-0.0021226;-1.54E-6;0;Globalstar
11.39173996;0.0005136;52.0131;233.1104;213.796;205.6778;-0.0021723;-1.56E-6;0;Globalstar
11.39173914;0.0005144;52.0132;232.2583;214.5165;224.2449;-0.0022694;-1.6E-6;0;Globalstar
11.39173729;0.0005161;52.0132;229.7337;216.6212;225.8638;-0.0022463;-1.59E-6;0;Globalstar
11.39173707;0.0005161;52.0132;229.511;216.805;246.9791;-0.002253;-1.6E-6;0;Globalstar
11.39173583;0.0005179;52.0133;227.2018;218.7428;239.9359;-0.002148;-1.55E-6;0;Globalstar
11.39173413;0.0005194;52.0133;225.1105;220.5013;219.733;-0.002229;-1.59E-6;0;Globalstar
11.3917328;0.0005215;52.0133;222.3627;222.7325;243.4948;-0.002087;-1.53E-6;0;Globalstar
11.39173233;0.0005238;52.0134;220.0533;224.7193;236.7739;-0.0018333;-1.43E-6;0;Globalstar
11.39173167;0.000525;52.0134;218.6266;225.933;158.9992;-0.0017786;-1.41E-6;0;Globalstar
11.39173122;0.000526;52.0134;217.7434;226.6436;230.8555;-0.001775;-1.41E-6;0;Globalstar
11.39173046;0.0005275;52.0134;215.6527;228.3668;209.8609;-0.001697;-1.38E-6;0;Globalstar
11.39173023;0.0005278;52.0134;214.9738;228.9656;292.0124;-0.0016597;-1.36E-6;0;Globalstar
11.39172967;0.0005303;52.0134;213.1284;230.4816;211.041;-0.0015641;-1.33E-6;0;Globalstar
11.39172968;0.0005306;52.0134;212.4425;231.0511;305.1085;-0.0014563;-1.28E-6;0;Globalstar
11.39172889;0.0005326;52.0134;210.5961;232.6126;225.8227;-0.001428;-1.27E-6;0;Globalstar
11.39172791;0.000535;52.0133;208.505;234.367;205.4472;-0.0014154;-1.27E-6;0;Globalstar
11.3917273;0.0005367;52.0133;207.2643;235.4398;169.4199;-0.0014103;-1.26E-6;0;Globalstar
11.39172708;0.0005383;52.0133;205.9798;236.492;208.3167;-0.0012907;-1.22E-6;0;Globalstar
11.39172654;0.0005392;52.0133;204.5139;237.7585;197.4882;-0.0012392;-1.2E-6;0;Globalstar
11.39172602;0.0005402;52.0132;203.4479;238.6223;222.3479;-0.001235;-1.2E-6;0;Globalstar
11.39172533;0.000541;52.0132;201.8008;240.0416;161.7181;-0.0012153;-1.19E-6;0;Globalstar
11.39172496;0.0005414;52.0132;201.1381;240.5977;216.1883;-0.0012284;-1.19E-6;0;Globalstar
11.39172422;0.0005439;52.0131;198.8073;242.5248;246.1318;-0.0011578;-1.17E-6;0;Globalstar
11.39172382;0.0005462;52.013;196.3002;244.6727;217.7937;-0.00097298;-1.09E-6;0;Globalstar
11.39172326;0.0005482;52.0129;193.9907;246.6132;211.3032;-0.00092655;-1.08E-6;0;Globalstar
11.39172269;0.0005496;52.0128;192.3418;248.024;153.8037;-0.00096167;-1.09E-6;0;Globalstar
11.39172252;0.0005501;52.0128;191.7119;248.5403;152.0873;-0.00095898;-1.09E-6;0;Globalstar
11.39172193;0.000552;52.0127;189.8211;250.0999;148.6394;-0.00096569;-1.09E-6;0;Globalstar
11.39172168;0.0005527;52.0126;189.1298;250.6587;252.0234;-0.00095509;-1.09E-6;0;Globalstar
11.39172135;0.0005547;52.0125;187.0632;252.3536;189.6175;-0.0008839;-1.06E-6;0;Globalstar
11.3917212;0.0005549;52.0125;186.8426;252.5525;207.1323;-0.00088808;-1.06E-6;0;Globalstar
11.39172086;0.0005559;52.0125;185.821;253.4114;155.983;-0.00091011;-1.07E-6;0;Globalstar
11.39172034;0.0005569;52.0123;184.3471;254.6392;158.9466;-0.00091801;-1.07E-6;0;Globalstar
11.3917194;0.0005588;52.0122;181.765;256.8248;258.9884;-0.00093733;-1.08E-6;0;Globalstar
11.3917194;0.0005588;52.0122;181.765;256.8248;258.9884;-0.00093733;-1.08E-6;0;Globalstar
11.3917187;0.0005606;52.0121;179.7177;258.4928;163.3722;-0.00094077;-1.08E-6;0;Globalstar
11.39171794;0.0005622;52.012;178.0544;259.8844;130.5659;-0.00097824;-1.1E-6;0;Globalstar
11.39171764;0.0005631;52.0119;176.8461;260.7456;38.6813;-0.00092021;-1.07E-6;0;Globalstar
11.39171751;0.0005643;52.0119;175.5035;261.8477;176.8936;-0.00086009;-1.05E-6;0;Globalstar
11.39171723;0.0005649;52.0118;174.616;262.6092;256.0548;-0.00083988;-1.04E-6;0;Globalstar
11.3917166;0.0005664;52.0117;172.3073;264.521;247.8672;-0.00079097;-1.02E-6;0;Globalstar
11.39171681;0.0005687;52.0116;169.9983;266.4673;240.2671;-0.00058046;-9.4E-7;0;Globalstar
11.39171688;0.0005701;52.0115;168.5966;267.6533;119.4382;-0.00048831;-9.0E-7;0;Globalstar
11.39171722;0.0005707;52.0115;167.6848;268.4136;240.1351;-0.00036638;-8.6E-7;0;Globalstar
11.39171723;0.0005719;52.0115;166.0664;269.764;130.4832;-0.00032245;-8.4E-7;0;Globalstar
11.39171768;0.0005723;52.0115;165.3792;270.3441;226.7823;-0.00015343;-7.7E-7;0;Globalstar
11.39171835;0.0005733;52.0114;163.5238;271.7654;162.7263;4.2167E-5;-7.0E-7;0;Globalstar
11.39171856;0.0005735;52.0114;162.8493;272.3366;237.365;9.5542E-5;-6.7E-7;0;Globalstar
11.39171897;0.0005768;52.0108;160.5398;274.2711;230.7507;0.0002412;-6.2E-7;0;Globalstar
11.39171918;0.0005778;52.0107;159.539;275.1363;143.8459;0.00039001;-5.6E-7;0;Globalstar
11.39171922;0.0005787;52.0108;158.2307;276.1663;223.2119;0.00051379;-5.1E-7;0;Globalstar
11.39171941;0.0005794;52.0107;156.3757;277.7592;158.2935;0.0005889;-4.8E-7;0;Globalstar
11.3917195;0.0005798;52.0107;155.9391;278.1478;185.534;0.00065898;-4.5E-7;0;Globalstar
11.39171989;0.0005812;52.0107;153.6633;280.0059;121.0171;0.00072228;-4.3E-7;0;Globalstar
11.39172048;0.0005822;52.0108;150.8998;282.337;171.2978;0.00071209;-4.3E-7;0;Globalstar
11.39172057;0.0005823;52.0108;150.68;282.5279;187.3966;0.00070979;-4.3E-7;0;Globalstar
11.39172033;0.000583;52.0108;149.2273;283.6867;154.0531;0.00048155;-5.2E-7;0;Globalstar
11.39172027;0.000584;52.0108;146.9097;285.5419;161.135;0.00014998;-6.5E-7;0;Globalstar
11.39172017;0.0005841;52.0108;146.243;286.0634;222.453;7.3279E-5;-6.8E-7;0;Globalstar
11.39172029;0.0005848;52.0109;143.531;288.1997;184.4219;-0.00023263;-8.0E-7;0;Globalstar
11.39172035;0.0005855;52.0109;140.6216;290.4209;124.5656;-0.0003726;-8.6E-7;0;Globalstar
11.39172027;0.0005856;52.0109;140.224;290.7241;85.1487;-0.00040435;-8.7E-7;0;Globalstar
11.39172;0.000586;52.0109;139.0944;291.5889;218.7478;-0.00053359;-9.2E-7;0;Globalstar
11.39171989;0.0005865;52.0109;137.242;293.0718;149.433;-0.00052868;-9.2E-7;0;Globalstar
11.39171976;0.0005868;52.0109;136.0016;294.1182;112.5644;-0.00048313;-9.0E-7;0;Globalstar
